TIANMU-1 07             
1 57399U 23101A   26065.57454230  .00008352  00000+0  29795-3 0  9991
2 57399  97.2728 118.5929 0004609 142.4105 217.7458 15.29118809145964
STARLINK-31470          
1 59569U 24076F   26068.24231459 -.00003688  00000+0 -12462-3 0  9999
2 59569  43.0015   8.1268 0001517 254.4295 105.6390 15.27568468106383
